{"type": "FeatureCollection", "features": [ {"type": "Feature", "properties": {"norad_id": 35480, "name": "IRIDIUM 33 DEB", "group": "iridium-33-debris", "lat": 26.360482969345984, "lon": -158.25173093110422, "alt_km": 719.87225681989, "timestamp": "2025-12-15T20:48:54.270011+00:00", "meta": {"OBJECT_NAME": "IRIDIUM 33 DEB", "OBJECT_ID": "1997-051QA", "EPOCH": "2025-12-09T19:59:43.135296", "MEAN_MOTION": 14.49744632, "ECCENTRICITY": 0.00159269, "INCLINATION": 86.357, "RA_OF_ASC_NODE": 26.1722, "ARG_OF_PERICENTER": 113.2937, "MEAN_ANOMALY": 246.9945, "EPHEMERIS_TYPE": 0, "CLASSIFICATION_TYPE": "U", "NORAD_CAT_ID": 35480, "ELEMENT_SET_NO": 999, "REV_AT_EPOCH": 86989, "BSTAR": 0.0009193458, "MEAN_MOTION_DOT": 3.565e-05, "MEAN_MOTION_DDOT": 0}, "tle": {"line1": "1 35480U 97051QA  25343.83313814  .00003565  00000+0  91935-3 0  9998", "line2": "2 35480  86.3570  26.1722 0015926 113.2937 246.9945 14.49744632869893"}}, "geometry": {"type": "Point", "coordinates": [-158.25173093110422, 26.360482969345984]}}, {"type": "Feature", "properties": {"norad_id": 35484, "name": "IRIDIUM 33 DEB", "group": "iridium-33-debris", "lat": 29.962213462354438, "lon": 169.180409360313, "alt_km": 555.1773990305765, "timestamp": "2025-12-15T20:48:54.270021+00:00", "meta": {"OBJECT_NAME": "IRIDIUM 33 DEB", "OBJECT_ID": "1997-051QE", "EPOCH": "2025-12-13T07:15:48.307680", "MEAN_MOTION": 14.98714194, "ECCENTRICITY": 0.00237352, "INCLINATION": 86.3615, "RA_OF_ASC_NODE": 352.4822, "ARG_OF_PERICENTER": 123.3819, "MEAN_ANOMALY": 236.9688, "EPHEMERIS_TYPE": 0, "CLASSIFICATION_TYPE": "U", "NORAD_CAT_ID": 35484, "ELEMENT_SET_NO": 999, "REV_AT_EPOCH": 62024, "BSTAR": 0.0048114888, "MEAN_MOTION_DOT": 0.00058609, "MEAN_MOTION_DDOT": 0}, "tle": {"line1": "1 35484U 97051QE  25347.30264245  .00058609  00000+0  48115-2 0  9991", "line2": "2 35484  86.3615 352.4822 0023735 123.3819 236.9688 14.98714194620242"}}, "geometry": {"type": "Point", "coordinates": [169.180409360313, 29.962213462354438]}}, {"type": "Feature", "properties": {"norad_id": 35488, "name": "IRIDIUM 33 DEB", "group": "iridium-33-debris", "lat": 81.79256308074572, "lon": -34.099896558723366, "alt_km": 598.7212517978414, "timestamp": "2025-12-15T20:48:54.270031+00:00", "meta": {"OBJECT_NAME": "IRIDIUM 33 DEB", "OBJECT_ID": "1997-051QJ", "EPOCH": "2025-12-14T07:12:10.479456", "MEAN_MOTION": 14.83115421, "ECCENTRICITY": 0.00296471, "INCLINATION": 86.3249, "RA_OF_ASC_NODE": 300.1594, "ARG_OF_PERICENTER": 37.8758, "MEAN_ANOMALY": 322.4543, "EPHEMERIS_TYPE": 0, "CLASSIFICATION_TYPE": "U", "NORAD_CAT_ID": 35488, "ELEMENT_SET_NO": 999, "REV_AT_EPOCH": 88289, "BSTAR": 0.0017774187, "MEAN_MOTION_DOT": 0.00014633, "MEAN_MOTION_DDOT": 0}, "tle": {"line1": "1 35488U 97051QJ  25348.30012129  .00014633  00000+0  17774-2 0  9994", "line2": "2 35488  86.3249 300.1594 0029647  37.8758 322.4543 14.83115421882898"}}, "geometry": {"type": "Point", "coordinates": [-34.099896558723366, 81.79256308074572]}}, {"type": "Feature", "properties": {"norad_id": 35616, "name": "IRIDIUM 33 DEB", "group": "iridium-33-debris", "lat": -47.68636408070721, "lon": 168.35324964784022, "alt_km": 628.420869942126, "timestamp": "2025-12-15T20:48:54.270041+00:00", "meta": {"OBJECT_NAME": "IRIDIUM 33 DEB", "OBJECT_ID": "1997-051QN", "EPOCH": "2025-12-13T17:33:06.169824", "MEAN_MOTION": 14.81853952, "ECCENTRICITY": 0.00103784, "INCLINATION": 86.3548, "RA_OF_ASC_NODE": 345.3124, "ARG_OF_PERICENTER": 159.4251, "MEAN_ANOMALY": 200.7391, "EPHEMERIS_TYPE": 0, "CLASSIFICATION_TYPE": "U", "NORAD_CAT_ID": 35616, "ELEMENT_SET_NO": 999, "REV_AT_EPOCH": 87589, "BSTAR": 0.0018690544, "MEAN_MOTION_DOT": 0.00014827, "MEAN_MOTION_DDOT": 0}, "tle": {"line1": "1 35616U 97051QN  25347.73132141  .00014827  00000+0  18691-2 0  9994", "line2": "2 35616  86.3548 345.3124 0010378 159.4251 200.7391 14.81853952875890"}}, "geometry": {"type": "Point", "coordinates": [168.35324964784022, -47.68636408070721]}}, {"type": "Feature", "properties": {"norad_id": 35618, "name": "IRIDIUM 33 DEB", "group": "iridium-33-debris", "lat": 21.411724434861185, "lon": -6.426269599276828, "alt_km": 696.8947254470695, "timestamp": "2025-12-15T20:48:54.270051+00:00", "meta": {"OBJECT_NAME": "IRIDIUM 33 DEB", "OBJECT_ID": "1997-051QQ", "EPOCH": "2025-12-05T07:42:53.148672", "MEAN_MOTION": 14.52258119, "ECCENTRICITY": 0.00302089, "INCLINATION": 86.3407, "RA_OF_ASC_NODE": 356.7447, "ARG_OF_PERICENTER": 46.3254, "MEAN_ANOMALY": 314.0448, "EPHEMERIS_TYPE": 0, "CLASSIFICATION_TYPE": "U", "NORAD_CAT_ID": 35618, "ELEMENT_SET_NO": 999, "REV_AT_EPOCH": 65286, "BSTAR": 0.00091388234, "MEAN_MOTION_DOT": 3.753e-05, "MEAN_MOTION_DDOT": 0}, "tle": {"line1": "1 35618U 97051QQ  25339.32144848  .00003753  00000+0  91388-3 0  9990", "line2": "2 35618  86.3407 356.7447 0030208  46.3254 314.0448 14.52258119652865"}}, "geometry": {"type": "Point", "coordinates": [-6.426269599276828, 21.411724434861185]}}, {"type": "Feature", "properties": {"norad_id": 35620, "name": "IRIDIUM 33 DEB", "group": "iridium-33-debris", "lat": -23.217381104771345, "lon": 37.68566843242397, "alt_km": 698.9646198727751, "timestamp": "2025-12-15T20:48:54.270062+00:00", "meta": {"OBJECT_NAME": "IRIDIUM 33 DEB", "OBJECT_ID": "1997-051QS", "EPOCH": "2025-12-14T08:47:37.258080", "MEAN_MOTION": 14.3812904, "ECCENTRICITY": 0.01406283, "INCLINATION": 86.3871, "RA_OF_ASC_NODE": 216.7659, "ARG_OF_PERICENTER": 253.5929, "MEAN_ANOMALY": 104.9772, "EPHEMERIS_TYPE": 0, "CLASSIFICATION_TYPE": "U", "NORAD_CAT_ID": 35620, "ELEMENT_SET_NO": 999, "REV_AT_EPOCH": 59989, "BSTAR": 0.0051034736, "MEAN_MOTION_DOT": 0.000174, "MEAN_MOTION_DDOT": 0}, "tle": {"line1": "1 35620U 97051QS  25348.36640345  .00017400  00000+0  51035-2 0  9998", "line2": "2 35620  86.3871 216.7659 0140628 253.5929 104.9772 14.38129040599895"}}, "geometry": {"type": "Point", "coordinates": [37.68566843242397, -23.217381104771345]}}, {"type": "Feature", "properties": {"norad_id": 35622, "name": "IRIDIUM 33 DEB", "group": "iridium-33-debris", "lat": -39.04567536408881, "lon": -101.02554599949374, "alt_km": 553.820120174264, "timestamp": "2025-12-15T20:48:54.270072+00:00", "meta": {"OBJECT_NAME": "IRIDIUM 33 DEB", "OBJECT_ID": "1997-051QU", "EPOCH": "2025-12-14T12:14:43.972224", "MEAN_MOTION": 15.04969242, "ECCENTRICITY": 0.00054886, "INCLINATION": 86.2028, "RA_OF_ASC_NODE": 262.7313, "ARG_OF_PERICENTER": 323.1514, "MEAN_ANOMALY": 209.8665, "EPHEMERIS_TYPE": 0, "CLASSIFICATION_TYPE": "U", "NORAD_CAT_ID": 35622, "ELEMENT_SET_NO": 999, "REV_AT_EPOCH": 87386, "BSTAR": 0.0048535985, "MEAN_MOTION_DOT": 0.00069411, "MEAN_MOTION_DDOT": 0}, "tle": {"line1": "1 35622U 97051QU  25348.51023116  .00069411  00000+0  48536-2 0  9999", "line2": "2 35622  86.2028 262.7313 0005488 323.1514 209.8665 15.04969242873864"}}, "geometry": {"type": "Point", "coordinates": [-101.02554599949374, -39.04567536408881]}}, {"type": "Feature", "properties": {"norad_id": 35628, "name": "IRIDIUM 33 DEB", "group": "iridium-33-debris", "lat": 86.3164579220711, "lon": 106.03999865499013, "alt_km": 664.6092238325218, "timestamp": "2025-12-15T20:48:54.270095+00:00", "meta": {"OBJECT_NAME": "IRIDIUM 33 DEB", "OBJECT_ID": "1997-051RA", "EPOCH": "2025-12-13T19:18:48.561408", "MEAN_MOTION": 14.67604958, "ECCENTRICITY": 0.00102895, "INCLINATION": 86.3579, "RA_OF_ASC_NODE": 8.6006, "ARG_OF_PERICENTER": 338.9594, "MEAN_ANOMALY": 21.1195, "EPHEMERIS_TYPE": 0, "CLASSIFICATION_TYPE": "U", "NORAD_CAT_ID": 35628, "ELEMENT_SET_NO": 999, "REV_AT_EPOCH": 86462, "BSTAR": 0.0015459634, "MEAN_MOTION_DOT": 8.811e-05, "MEAN_MOTION_DDOT": 0}, "tle": {"line1": "1 35628U 97051RA  25347.80472872  .00008811  00000+0  15460-2 0  9990", "line2": "2 35628  86.3579   8.6006 0010289 338.9594  21.1195 14.67604958864620"}}, "geometry": {"type": "Point", "coordinates": [106.03999865499013, 86.3164579220711]}}, {"type": "Feature", "properties": {"norad_id": 35631, "name": "IRIDIUM 33 DEB", "group": "iridium-33-debris", "lat": 61.36155858068312, "lon": -167.04965303375437, "alt_km": 715.1082880306585, "timestamp": "2025-12-15T20:48:54.270108+00:00", "meta": {"OBJECT_NAME": "IRIDIUM 33 DEB", "OBJECT_ID": "1997-051RD", "EPOCH": "2025-12-14T20:11:45.155904", "MEAN_MOTION": 14.47317838, "ECCENTRICITY": 0.00191711, "INCLINATION": 86.368, "RA_OF_ASC_NODE": 20.0711, "ARG_OF_PERICENTER": 111.665, "MEAN_ANOMALY": 65.3128, "EPHEMERIS_TYPE": 0, "CLASSIFICATION_TYPE": "U", "NORAD_CAT_ID": 35631, "ELEMENT_SET_NO": 999, "REV_AT_EPOCH": 87227, "BSTAR": 0.00037102564, "MEAN_MOTION_DOT": 1.381e-05, "MEAN_MOTION_DDOT": 0}, "tle": {"line1": "1 35631U 97051RD  25348.84149486  .00001381  00000+0  37103-3 0  9995", "line2": "2 35631  86.3680  20.0711 0019171 111.6650  65.3128 14.47317838872278"}}, "geometry": {"type": "Point", "coordinates": [-167.04965303375437, 61.36155858068312]}}, {"type": "Feature", "properties": {"norad_id": 35680, "name": "IRIDIUM 33 DEB", "group": "iridium-33-debris", "lat": 28.52869737013823, "lon": -161.98554988941788, "alt_km": 869.0309825890063, "timestamp": "2025-12-15T20:48:54.270119+00:00", "meta": {"OBJECT_NAME": "IRIDIUM 33 DEB", "OBJECT_ID": "1997-051RJ", "EPOCH": "2025-12-14T08:38:54.081024", "MEAN_MOTION": 14.20954301, "ECCENTRICITY": 0.01504449, "INCLINATION": 86.1029, "RA_OF_ASC_NODE": 20.8049, "ARG_OF_PERICENTER": 273.3107, "MEAN_ANOMALY": 95.5624, "EPHEMERIS_TYPE": 0, "CLASSIFICATION_TYPE": "U", "NORAD_CAT_ID": 35680, "ELEMENT_SET_NO": 999, "REV_AT_EPOCH": 60724, "BSTAR": 0.0038932879, "MEAN_MOTION_DOT": 9.473e-05, "MEAN_MOTION_DDOT": 0}, "tle": {"line1": "1 35680U 97051RJ  25348.36034816  .00009473  00000+0  38933-2 0  9997", "line2": "2 35680  86.1029  20.8049 0150444 273.3107  95.5624 14.20954301607243"}}, "geometry": {"type": "Point", "coordinates": [-161.98554988941788, 28.52869737013823]}}]}